NORAD_CAT_ID,OBJECT_NAME,OBJECT_TYPE,EPOCH,MEAN_MOTION,ECCENTRICITY,INCLINATION,RA_OF_ASC_NODE,ARG_OF_PERICENTER,MEAN_ANOMALY,BSTAR,MEAN_MOTION_DOT,MEAN_MOTION_DDOT,TLE_LINE0,TLE_LINE1,TLE_LINE2,SEMIMAJOR_AXIS,PERIOD,APOGEE,PERIGEE,DECAYED
50173.0,STARLINK-3289,PAYLOAD,2024-04-15 07:52:49,15.0884092,0.000159,53.2167,111.8048,91.8188,268.2986,5.5164e-05,5.9e-06,0.0,0 STARLINK-3289,1 50173U 21125T   24106.32834538  .00000590  00000-0  55164-4 0  9995,2 50173  53.2167 111.8048 0001590  91.8188 268.2986 15.08840920132076,6917.878,95.437,540.843,538.643,0.0
50173.0,STARLINK-3289,PAYLOAD,2024-04-16 04:32:50,15.0884036,0.0001644,53.2171,107.9406,83.9733,276.1447,5.2774e-05,5.52e-06,0.0,0 STARLINK-3289,1 50173U 21125T   24107.18946836  .00000552  00000-0  52774-4 0  9997,2 50173  53.2171 107.9406 0001644  83.9733 276.1447 15.08840360129112,6917.879,95.438,540.882,538.607,0.0
50173.0,STARLINK-3289,PAYLOAD,2024-04-16 09:18:59,15.08845121,0.0001545,53.2168,107.0479,92.8807,267.2362,9.0391e-05,1.151e-05,0.0,0 STARLINK-3289,1 50173U 21125T   24107.38818346  .00001151  00000-0  90391-4 0  9996,2 50173  53.2168 107.0479 0001545  92.8807 267.2362 15.08845121132234,6917.865,95.437,540.799,538.661,0.0
50173.0,STARLINK-3289,PAYLOAD,2024-04-16 17:15:54,15.08845568,0.0001562,53.2171,105.5616,93.0043,267.1128,0.00010125,1.324e-05,0.0,0 STARLINK-3289,1 50173U 21125T   24107.71938264  .00001324  00000-0  10125-3 0  9993,2 50173  53.2171 105.5616 0001562  93.0043 267.1128 15.08845568132287,6917.863,95.437,540.809,538.648,0.0
50173.0,STARLINK-3289,PAYLOAD,2024-04-17 04:23:36,15.08850347,0.0001538,53.217,103.4804,90.9829,269.134,0.0001343,1.851e-05,0.0,0 STARLINK-3289,1 50173U 21125T   24108.18305822  .00001851  00000-0  13430-3 0  9990,2 50173  53.2170 103.4804 0001538  90.9829 269.1340 15.08850347129266,6917.849,95.437,540.778,538.65,0.0
50173.0,STARLINK-3289,PAYLOAD,2024-04-17 09:09:45,15.08860645,0.0001607,53.2166,102.5869,96.5172,263.6003,0.00013407,1.848e-05,0.0,0 STARLINK-3289,1 50173U 21125T   24108.38177084  .00001848  00000-0  13407-3 0  9999,2 50173  53.2166 102.5869 0001607  96.5172 263.6003 15.08860645129292,6917.817,95.436,540.794,538.571,0.0
50173.0,STARLINK-3289,PAYLOAD,2024-04-18 04:14:24,15.08828207,0.0001402,53.216,99.0192,94.3438,265.7714,-0.00011984,-2.194e-05,0.0,0 STARLINK-3289,1 50173U 21125T   24109.17667421 -.00002194  00000-0 -11984-3 0  9991,2 50173  53.2160  99.0192 0001402  94.3438 265.7714 15.08828207129413,6917.916,95.438,540.751,538.812,0.0
50173.0,STARLINK-3289,PAYLOAD,2024-04-18 09:00:33,15.08837364,0.0001536,53.2159,98.1236,99.8269,260.2897,3.0916e-06,-2.39e-06,0.0,0 STARLINK-3289,1 50173U 21125T   24109.37539061 -.00000239  00000-0  30916-5 0  9996,2 50173  53.2159  98.1236 0001536  99.8269 260.2897 15.08837364129449,6917.888,95.438,540.816,538.691,0.0
50173.0,STARLINK-3289,PAYLOAD,2024-04-19 04:05:11,15.08830683,0.0001587,53.2155,94.5562,33.4635,326.6457,-0.00012704,-2.309e-05,0.0,0 STARLINK-3289,1 50173U 21125T   24110.17026812 -.00002309  00000-0 -12704-3 0  9995,2 50173  53.2155  94.5562 0001587  33.4635 326.6457 15.08830683132657,6917.909,95.438,540.872,538.676,0.0
50173.0,STARLINK-3289,PAYLOAD,2024-04-19 23:09:48,15.08835738,0.0001125,53.2156,90.9865,90.9374,269.1747,0.0001106,1.473e-05,0.0,0 STARLINK-3289,1 50173U 21125T   24110.96514744  .00001473  00000-0  11060-3 0  9991,2 50173  53.2156  90.9865 0001125  90.9374 269.1747 15.08835738132772,6917.893,95.438,540.537,538.98,0.0
50173.0,STARLINK-3289,PAYLOAD,2024-04-20 03:55:57,15.08860445,0.0001661,53.2162,90.0908,112.4177,247.6991,0.00043039,6.572e-05,0.0,0 STARLINK-3289,1 50173U 21125T   24111.16385996  .00006572  00000-0  43039-3 0  9995,2 50173  53.2162  90.0908 0001661 112.4177 247.6991 15.08860445129719,6917.818,95.436,540.832,538.534,0.0
50173.0,STARLINK-3289,PAYLOAD,2024-04-20 08:42:06,15.08862435,0.0001667,53.217,89.2029,99.4521,260.6659,0.0004352,6.649e-05,0.0,0 STARLINK-3289,1 50173U 21125T   24111.36257637  .00006649  00000-0  43520-3 0  9997,2 50173  53.2170  89.2029 0001667  99.4521 260.6659 15.08862435132839,6917.812,95.436,540.83,538.524,0.0
50173.0,STARLINK-3289,PAYLOAD,2024-04-21 03:46:46,15.08803993,0.0001135,53.2166,85.6402,92.8805,267.2317,-0.00033612,-5.628e-05,0.0,0 STARLINK-3289,1 50173U 21125T   24112.15748720 -.00005628  00000-0 -33612-3 0  9992,2 50173  53.2166  85.6402 0001135  92.8805 267.2317 15.08803993129868,6917.99,95.44,540.641,539.07,0.0
50173.0,STARLINK-3289,PAYLOAD,2024-04-21 05:22:09,15.08803517,0.000119,53.2169,85.3412,103.2216,256.8909,-0.00040762,-6.763e-05,0.0,0 STARLINK-3289,1 50173U 21125T   24112.22372636 -.00006763  00000-0 -40762-3 0  9994,2 50173  53.2169  85.3412 0001190 103.2216 256.8909 15.08803517132961,6917.992,95.44,540.68,539.034,0.0
50173.0,STARLINK-3289,PAYLOAD,2024-04-21 22:51:24,15.08835056,0.0001155,53.2171,82.0663,83.7978,276.3146,0.0003404,5.133e-05,0.0,0 STARLINK-3289,1 50173U 21125T   24112.95236174  .00005133  00000-0  34040-3 0  9990,2 50173  53.2171  82.0663 0001155  83.7978 276.3146 15.08835056133070,6917.896,95.438,540.56,538.961,0.0
50173.0,STARLINK-3289,PAYLOAD,2024-04-22 03:37:33,15.08859174,0.0001404,53.2172,81.1746,97.7928,262.3224,0.00097666,0.00015298,0.0,0 STARLINK-3289,1 50173U 21125T   24113.15107713  .00015298  00000-0  97666-3 0  9995,2 50173  53.2172  81.1746 0001404  97.7928 262.3224 15.08859174130010,6917.822,95.436,540.658,538.716,0.0
50173.0,STARLINK-3289,PAYLOAD,2024-04-22 06:48:19,15.08864492,0.0001267,53.2169,80.5799,85.2606,274.8531,0.0016185,0.00025582,0.0,0 STARLINK-3289,1 50173U 21125T   24113.28356005  .00025582  00000-0  16185-2 0  9992,2 50173  53.2169  80.5799 0001267  85.2606 274.8531 15.08864492133122,6917.806,95.436,540.547,538.794,0.0
50173.0,STARLINK-3289,PAYLOAD,2024-04-23 05:03:43,15.08851341,7.92e-05,53.2167,76.4202,94.2207,265.8875,-7.0312e-05,-1.407e-05,0.0,0 STARLINK-3289,1 50173U 21125T   24114.21091645 -.00001407  00000-0 -70312-4 0  9998,2 50173  53.2167  76.4202 0000792  94.2207 265.8875 15.08851341130174,6917.846,95.437,540.259,539.163,0.0
50173.0,STARLINK-3289,PAYLOAD,2024-04-23 20:57:35,15.08834547,9.03e-05,53.2163,73.4528,85.0486,275.0609,-7.2039e-05,-1.434e-05,0.0,0 STARLINK-3289,1 50173U 21125T   24114.87332199 -.00001434  00000-0 -72039-4 0  9990,2 50173  53.2163  73.4528 0000903  85.0486 275.0609 15.08834547130277,6917.897,95.438,540.387,539.137,0.0
50173.0,STARLINK-3289,PAYLOAD,2024-04-24 06:29:53,15.08856379,9.66e-05,53.2165,71.6634,86.7502,273.36,0.00027938,4.163e-05,0.0,0 STARLINK-3289,1 50173U 21125T   24115.27075485  .00004163  00000-0  27938-3 0  9994,2 50173  53.2165  71.6634 0000966  86.7502 273.3600 15.08856379130339,6917.83,95.437,540.364,539.027,0.0
50173.0,STARLINK-3289,PAYLOAD,2024-04-25 03:09:54,15.08847802,0.0001505,53.2196,67.7871,126.2226,233.8905,0.00026149,3.877e-05,0.0,0 STARLINK-3289,1 50173U 21125T   24116.13187751  .00003877  00000-0  26149-3 0  9994,2 50173  53.2196  67.7871 0001505 126.2226 233.8905 15.08847802130469,6917.857,95.437,540.763,538.68,0.0
50173.0,STARLINK-3289,PAYLOAD,2024-04-25 06:20:39,15.08875221,0.0001038,53.2185,67.1967,123.804,236.3051,0.0007848,0.00012236,0.0,0 STARLINK-3289,1 50173U 21125T   24116.26434845  .00012236  00000-0  78480-3 0  9991,2 50173  53.2185  67.1967 0001038 123.8040 236.3051 15.08875221130483,6917.773,95.435,540.356,538.92,0.0
50173.0,STARLINK-3289,PAYLOAD,2024-04-26 03:00:41,15.08842503,9.91e-05,53.2175,63.3351,99.4968,260.6136,1.0739e-05,-1.17e-06,0.0,0 STARLINK-3289,1 50173U 21125T   24117.12547804 -.00000117  00000-0  10739-4 0  9997,2 50173  53.2175  63.3351 0000991  99.4968 260.6136 15.08842503130617,6917.873,95.437,540.423,539.052,0.0
50173.0,STARLINK-3289,PAYLOAD,2024-04-26 06:11:27,15.08843661,9.39e-05,53.2171,62.7389,103.2518,256.8579,5.6748e-05,6.16e-06,0.0,0 STARLINK-3289,1 50173U 21125T   24117.25795708  .00000616  00000-0  56748-4 0  9992,2 50173  53.2171  62.7389 0000939 103.2518 256.8579 15.08843661133723,6917.869,95.437,540.384,539.085,0.0
50173.0,STARLINK-3289,PAYLOAD,2024-04-26 20:29:55,15.08841894,0.0001149,53.218,60.0593,115.7618,244.3493,-0.00012341,-2.251e-05,0.0,0 STARLINK-3289,1 50173U 21125T   24117.85412025 -.00002251  00000-0 -12341-3 0  9995,2 50173  53.2180  60.0593 0001149 115.7618 244.3493 15.08841894133817,6917.875,95.437,540.534,538.945,0.0
50173.0,STARLINK-3289,PAYLOAD,2024-04-27 01:16:05,15.08844934,0.0001187,53.2176,59.1691,68.0006,292.1113,7.5423e-05,9.13e-06,0.0,0 STARLINK-3289,1 50173U 21125T   24118.05283967  .00000913  00000-0  75423-4 0  9991,2 50173  53.2176  59.1691 0001187  68.0006 292.1113 15.08844934133844,6917.865,95.437,540.551,538.909,0.0
50173.0,STARLINK-3289,PAYLOAD,2024-04-27 20:20:43,15.08835419,9.08e-05,53.2168,55.6006,53.0665,307.0411,0.00011191,1.494e-05,0.0,0 STARLINK-3289,1 50173U 21125T   24118.84772674  .00001494  00000-0  11191-3 0  9992,2 50173  53.2168  55.6006 0000908  53.0665 307.0411 15.08835419130876,6917.894,95.438,540.388,539.131,0.0
50173.0,STARLINK-3289,PAYLOAD,2024-04-28 12:14:34,15.08839428,0.0001021,53.2177,52.6336,98.7407,261.3701,6.4439e-05,7.38e-06,0.0,0 STARLINK-3289,1 50173U 21125T   24119.51012428  .00000738  00000-0  64439-4 0  9995,2 50173  53.2177  52.6336 0001021  98.7407 261.3701 15.08839428134069,6917.882,95.438,540.453,539.041,0.0
50173.0,STARLINK-3289,PAYLOAD,2024-04-28 20:11:30,15.08834687,0.0001528,53.2194,51.1502,120.8981,239.2162,-3.7491e-05,-8.85e-06,0.0,0 STARLINK-3289,1 50173U 21125T   24119.84132815 -.00000885  00000-0 -37491-4 0  9997,2 50173  53.2194  51.1502 0001528 120.8981 239.2162 15.08834687134116,6917.897,95.438,540.819,538.705,0.0
50173.0,STARLINK-3289,PAYLOAD,2024-04-29 04:08:26,15.08838043,0.0001344,53.2198,49.6636,115.0892,245.0239,2.1419e-05,5.3e-07,0.0,0 STARLINK-3289,1 50173U 21125T   24120.17252843  .00000053  00000-0  21419-4 0  9997,2 50173  53.2198  49.6636 0001344 115.0892 245.0239 15.08838043131075,6917.886,95.438,540.681,538.822,0.0
